[Satellite]
VERSION=1.1
NAME=GORIZONT 8 [-]
NICKNAME=GORIZONT 8 [-]
TLE1=1 14532U 83118A   15054.71053321 -.00000201  00000-0  00000+0 0  9996
TLE2=2 14532  15.3329 352.1549 0026950  83.2177 104.5014  0.98270371 79939
